NORAD_CAT_ID,OBJECT_NAME,OBJECT_TYPE,EPOCH,MEAN_MOTION,ECCENTRICITY,INCLINATION,RA_OF_ASC_NODE,ARG_OF_PERICENTER,MEAN_ANOMALY,BSTAR,MEAN_MOTION_DOT,MEAN_MOTION_DDOT,TLE_LINE0,TLE_LINE1,TLE_LINE2,SEMIMAJOR_AXIS,PERIOD,APOGEE,PERIGEE,DECAYED
55416.0,STARLINK-5624,PAYLOAD,2024-02-22 12:23:50,14.9833006,0.0002833,70.0007,165.7857,267.2263,92.8572,1.341e-05,6.7e-07,0.0,0 STARLINK-5624,1 55416U 23014AB  24053.51656066  .00000067  00000-0  13410-4 0  9996,2 55416  70.0007 165.7857 0002833 267.2263  92.8572 14.98330060 58853,6950.193,96.107,574.027,570.089,0.0
55416.0,STARLINK-5624,PAYLOAD,2024-02-22 13:59:58,14.98332057,0.0003036,70.0004,165.6194,270.093,89.9881,8.9337e-06,1.4e-07,0.0,0 STARLINK-5624,1 55416U 23014AB  24053.58331948  .00000014  00000-0  89337-5 0  9996,2 55416  70.0004 165.6194 0003036 270.0930  89.9881 14.98332057 59806,6950.187,96.107,574.162,569.941,0.0
55416.0,STARLINK-5624,PAYLOAD,2024-02-22 17:12:14,14.98333684,0.0003016,70.0004,165.2828,269.2838,90.7976,1.8213e-05,1.24e-06,0.0,0 STARLINK-5624,1 55416U 23014AB  24053.71683806  .00000124  00000-0  18213-4 0  9990,2 55416  70.0004 165.2828 0003016 269.2838  90.7976 14.98333684 59825,6950.181,96.107,574.143,569.95,0.0
55416.0,STARLINK-5624,PAYLOAD,2024-02-23 12:25:51,14.98330733,0.0002772,70.0007,163.2618,263.7463,96.338,2.608e-05,2.18e-06,0.0,0 STARLINK-5624,1 55416U 23014AB  24054.51795856  .00000218  00000-0  26080-4 0  9993,2 55416  70.0007 163.2618 0002772 263.7463  96.3380 14.98330733 59007,6950.191,96.107,573.982,570.129,0.0
55416.0,STARLINK-5624,PAYLOAD,2024-02-23 14:01:59,14.9833411,0.0002695,70.0007,163.0932,261.5126,98.5728,5.0905e-05,5.15e-06,0.0,0 STARLINK-5624,1 55416U 23014AB  24054.58471582  .00000515  00000-0  50905-4 0  9990,2 55416  70.0007 163.0932 0002695 261.5126  98.5728 14.98334110 59957,6950.18,96.107,573.918,570.172,0.0
55416.0,STARLINK-5624,PAYLOAD,2024-02-23 17:14:15,14.98335376,0.0002897,70.0006,162.7572,267.0323,93.0504,5.1056e-05,5.16e-06,0.0,0 STARLINK-5624,1 55416U 23014AB  24054.71823492  .00000516  00000-0  51056-4 0  9995,2 55416  70.0006 162.7572 0002897 267.0323  93.0504 14.98335376 59975,6950.176,96.107,574.055,570.028,0.0
55416.0,STARLINK-5624,PAYLOAD,2024-02-24 14:04:00,14.98331791,0.0002299,70.0011,160.5695,258.6189,101.4712,-5.0216e-05,-6.92e-06,0.0,0 STARLINK-5624,1 55416U 23014AB  24055.58612051 -.00000692  00000-0 -50216-4 0  9992,2 55416  70.0011 160.5695 0002299 258.6189 101.4712 14.98331791 60104,6950.187,96.107,573.65,570.455,0.0
55416.0,STARLINK-5624,PAYLOAD,2024-02-25 10:53:45,14.98336932,0.0002822,70.0009,158.3812,267.4298,92.6538,6.2923e-05,6.58e-06,0.0,0 STARLINK-5624,1 55416U 23014AB  24056.45399322  .00000658  00000-0  62923-4 0  9990,2 55416  70.0009 158.3812 0002822 267.4298  92.6538 14.98336932 59295,6950.171,96.107,573.998,570.075,0.0
55416.0,STARLINK-5624,PAYLOAD,2024-02-25 14:06:00,14.98339698,0.0002792,70.001,158.0446,267.4411,92.6429,9.3507e-05,1.023e-05,0.0,0 STARLINK-5624,1 55416U 23014AB  24056.58751010  .00001023  00000-0  93507-4 0  9999,2 55416  70.0010 158.0446 0002792 267.4411  92.6429 14.98339698 60259,6950.163,96.106,573.968,570.087,0.0
55416.0,STARLINK-5624,PAYLOAD,2024-02-25 15:42:08,14.98340744,0.0002776,70.001,157.8764,267.2981,92.786,0.00010492,1.159e-05,0.0,0 STARLINK-5624,1 55416U 23014AB  24056.65426878  .00001159  00000-0  10492-3 0  9999,2 55416  70.0010 157.8764 0002776 267.2981  92.7860 14.98340744 60266,6950.16,96.106,573.954,570.095,0.0
55416.0,STARLINK-5624,PAYLOAD,2024-02-25 23:42:48,14.98365659,0.0002874,70.0008,157.0352,266.8374,93.2456,-0.00035358,-4.313e-05,0.0,0 STARLINK-5624,1 55416U 23014AB  24056.98805890 -.00004313  00000-0 -35358-3 0  9995,2 55416  70.0008 157.0352 0002874 266.8374  93.2456 14.98365659 59377,6950.083,96.105,573.945,569.95,0.0
55416.0,STARLINK-5624,PAYLOAD,2024-02-26 10:55:46,14.98323711,0.0002822,70.0008,155.8566,258.6001,101.4841,-2.3567e-05,-3.74e-06,0.0,0 STARLINK-5624,1 55416U 23014AB  24057.45540083 -.00000374  00000-0 -23567-4 0  9991,2 55416  70.0008 155.8566 0002822 258.6001 101.4841 14.98323711 59440,6950.212,96.107,574.039,570.116,0.0
55416.0,STARLINK-5624,PAYLOAD,2024-02-26 14:08:02,14.98325315,0.0002525,70.0019,155.5212,243.9653,116.1246,1.8848e-06,-7e-07,0.0,0 STARLINK-5624,1 55416U 23014AB  24057.58891920 -.00000070  00000-0  18848-5 0  9993,2 55416  70.0019 155.5212 0002525 243.9653 116.1246 14.98325315 60409,6950.207,96.107,573.827,570.317,0.0
55416.0,STARLINK-5624,PAYLOAD,2024-02-27 12:33:55,14.98329344,0.0002959,70.0,153.1618,267.4927,92.5893,-9.4291e-05,-1.218e-05,0.0,0 STARLINK-5624,1 55416U 23014AB  24058.52356071 -.00001218  00000-0 -94291-4 0  9992,2 55416  70.0000 153.1618 0002959 267.4927  92.5893 14.98329344 59600,6950.195,96.107,574.116,570.003,0.0
55416.0,STARLINK-5624,PAYLOAD,2024-02-27 14:10:03,14.98328208,0.0002915,70.0,152.9935,266.386,93.6966,-8.9532e-05,-1.161e-05,0.0,0 STARLINK-5624,1 55416U 23014AB  24058.59032127 -.00001161  00000-0 -89532-4 0  9991,2 55416  70.0000 152.9935 0002915 266.3860  93.6966 14.98328208 60552,6950.198,96.107,574.089,570.037,0.0
55416.0,STARLINK-5624,PAYLOAD,2024-02-27 15:46:11,14.98328853,0.0002838,70.0001,152.825,263.5423,96.5413,-7.5341e-05,-9.92e-06,0.0,0 STARLINK-5624,1 55416U 23014AB  24058.65708037 -.00000992  00000-0 -75341-4 0  9992,2 55416  70.0001 152.8250 0002838 263.5423  96.5413 14.98328853 60566,6950.196,96.107,574.034,570.089,0.0
55416.0,STARLINK-5624,PAYLOAD,2024-02-27 23:46:52,14.98313796,0.0002867,70.0,151.9833,275.8104,84.2728,0.00024104,2.783e-05,0.0,0 STARLINK-5624,1 55416U 23014AB  24058.99088462  .00002783  00000-0  24104-3 0  9990,2 55416  70.0000 151.9833 0002867 275.8104  84.2728 14.98313796 59679,6950.243,96.108,574.101,570.115,0.0
55416.0,STARLINK-5624,PAYLOAD,2024-02-28 12:35:56,14.98331892,0.0003064,69.9999,150.6374,269.6139,90.4669,0.00010677,1.181e-05,0.0,0 STARLINK-5624,1 55416U 23014AB  24059.52495493  .00001181  00000-0  10677-3 0  9997,2 55416  69.9999 150.6374 0003064 269.6139  90.4669 14.98331892 59757,6950.187,96.107,574.182,569.923,0.0
55416.0,STARLINK-5624,PAYLOAD,2024-02-28 14:12:04,14.98332072,0.000306,69.9999,150.469,269.7033,90.3775,0.00010716,1.186e-05,0.0,0 STARLINK-5624,1 55416U 23014AB  24059.59171465  .00001186  00000-0  10716-3 0  9993,2 55416  69.9999 150.4690 0003060 269.7033  90.3775 14.98332072 60701,6950.186,96.107,574.178,569.925,0.0
55416.0,STARLINK-5624,PAYLOAD,2024-02-28 15:48:12,14.98332985,0.0003057,69.9999,150.3007,269.7454,90.3355,0.00011587,1.29e-05,0.0,0 STARLINK-5624,1 55416U 23014AB  24059.65847383  .00001290  00000-0  11587-3 0  9992,2 55416  69.9999 150.3007 0003057 269.7454  90.3355 14.98332985 60713,6950.184,96.107,574.173,569.924,0.0
55416.0,STARLINK-5624,PAYLOAD,2024-02-29 11:01:49,14.98322672,0.0002949,70.0002,148.2813,272.3083,87.7739,4.6232e-05,4.59e-06,0.0,0 STARLINK-5624,1 55416U 23014AB  24060.45960525  .00000459  00000-0  46232-4 0  9998,2 55416  70.0002 148.2813 0002949 272.3083  87.7739 14.98322672 59894,6950.216,96.107,574.13,570.031,0.0
55416.0,STARLINK-5624,PAYLOAD,2024-02-29 14:14:06,14.98321153,0.0002865,70.0009,147.9455,269.4201,90.663,2.7364e-05,2.33e-06,0.0,0 STARLINK-5624,1 55416U 23014AB  24060.59312700  .00000233  00000-0  27364-4 0  9994,2 55416  70.0009 147.9455 0002865 269.4201  90.6630 14.98321153 60859,6950.22,96.108,574.076,570.094,0.0
55416.0,STARLINK-5624,PAYLOAD,2024-02-29 15:50:14,14.98323461,0.0003083,70.0,147.7763,271.9601,88.1205,4.505e-05,4.44e-06,0.0,0 STARLINK-5624,1 55416U 23014AB  24060.65988527  .00000444  00000-0  45050-4 0  9993,2 55416  70.0000 147.7763 0003083 271.9601  88.1205 14.98323461 60860,6950.213,96.107,574.221,569.935,0.0
55416.0,STARLINK-5624,PAYLOAD,2024-03-01 11:03:49,14.98340303,0.0002817,70.0005,145.7565,268.9333,91.1503,0.00011792,1.315e-05,0.0,0 STARLINK-5624,1 55416U 23014AB  24061.46099226  .00001315  00000-0  11792-3 0  9995,2 55416  70.0005 145.7565 0002817 268.9333  91.1503 14.98340303 60044,6950.161,96.106,573.984,570.068,0.0
55416.0,STARLINK-5624,PAYLOAD,2024-03-01 14:16:05,14.98340483,0.0002781,70.0008,145.4207,267.3686,92.7155,9.6473e-05,1.059e-05,0.0,0 STARLINK-5624,1 55416U 23014AB  24061.59451172  .00001059  00000-0  96473-4 0  9996,2 55416  70.0008 145.4207 0002781 267.3686  92.7155 14.98340483 61007,6950.16,96.106,573.958,570.093,0.0
55416.0,STARLINK-5624,PAYLOAD,2024-03-01 15:52:13,14.98339726,0.0002687,70.0011,145.2523,264.2313,95.854,0.00012364,1.383e-05,0.0,0 STARLINK-5624,1 55416U 23014AB  24061.66127126  .00001383  00000-0  12364-3 0  9999,2 55416  70.0011 145.2523 0002687 264.2313  95.8540 14.98339726 61019,6950.163,96.106,573.895,570.16,0.0
55416.0,STARLINK-5624,PAYLOAD,2024-03-02 11:05:50,14.98327276,0.0002599,70.0014,143.2347,223.3336,136.7619,0.00016743,1.905e-05,0.0,0 STARLINK-5624,1 55416U 23014AB  24062.46239572  .00001905  00000-0  16743-3 0  9992,2 55416  70.0014 143.2347 0002599 223.3336 136.7619 14.98327276 60194,6950.201,96.107,573.873,570.26,0.0
55416.0,STARLINK-5624,PAYLOAD,2024-03-02 14:18:07,14.98325814,0.000262,70.0012,142.8977,236.2279,123.8631,0.00015947,1.81e-05,0.0,0 STARLINK-5624,1 55416U 23014AB  24062.59591703  .00001810  00000-0  15947-3 0  9993,2 55416  70.0012 142.8977 0002620 236.2279 123.8631 14.98325814 61154,6950.206,96.107,573.892,570.25,0.0
55416.0,STARLINK-5624,PAYLOAD,2024-03-02 15:54:15,14.98325923,0.0002597,70.0011,142.729,234.5521,125.5396,0.00016157,1.835e-05,0.0,0 STARLINK-5624,1 55416U 23014AB  24062.66267694  .00001835  00000-0  16157-3 0  9991,2 55416  70.0011 142.7290 0002597 234.5521 125.5396 14.98325923 61163,6950.205,96.107,573.875,570.266,0.0
55416.0,STARLINK-5624,PAYLOAD,2024-03-03 11:07:52,14.98332775,0.000275,70.0004,140.7077,267.2951,92.7893,-8.6901e-05,-1.13e-05,0.0,0 STARLINK-5624,1 55416U 23014AB  24063.46379632 -.00001130  00000-0 -86901-4 0  9991,2 55416  70.0004 140.7077 0002750 267.2951  92.7893 14.98332775 60346,6950.184,96.107,573.961,570.138,0.0
